VINASAT-2               
1 38332U 12023B   19024.86005527 -.00000343  00000-0  00000+0 0  9996
2 38332   0.0497 262.5199 0002445  61.1001 241.6858  1.00269497 24535
NIMIQ 6                 
1 38342U 12026A   19024.90873008 -.00000187  00000-0  00000+0 0  9998
2 38342   0.0252  60.6759 0002673 242.4951  56.8034  1.00269592 24522
CHINASAT 2A (ZX 2A)     
1 38352U 12028A   19024.69979782 -.00000306  00000-0  00000+0 0  9996
2 38352   0.0362 230.6704 0006186 123.4090 119.8009  1.00270428 24565
INTELSAT 19 (IS-19)     
1 38356U 12030A   19024.19651822 -.00000070  00000-0  00000-0 0  9999
2 38356   0.0163  54.0868 0003112 259.4337  46.4257  1.00271596 23394
ECHOSTAR 17             
1 38551U 12035A   19023.95582949 -.00000087  00000-0  00000-0 0  9995
2 38551   0.0166  68.1756 0001855 236.5270  55.2525  1.00270508 24007
METEOSAT-10 (MSG-3)     
1 38552U 12035B   19024.63072767  .00000048  00000-0  00000-0 0  9990
2 38552   0.9893   7.1089 0001363 293.7860  59.0647  1.00274915 23811
SES-5                   
1 38652U 12036A   19024.58867640  .00000020  00000-0  00000-0 0  9998
2 38652   0.0166 117.5079 0002213 190.5791  32.3985  1.00270485 17420
TIANLIAN 1-03           
1 38730U 12040A   19023.72954336  .00000096  00000-0  00000+0 0  9996
2 38730   0.0553 243.3680 0001749 142.8556  15.9111  1.00272082 23908
INTELSAT 20 (IS-20)     
1 38740U 12043A   19024.46666938 -.00000038  00000-0  00000-0 0  9998
2 38740   0.0161  93.4638 0003561  91.4371 175.0677  1.00271246 23668
HYLAS 2                 
1 38741U 12043B   19024.88799375  .00000141  00000-0  00000-0 0  9991
2 38741   0.0526 266.0812 0002109  33.0460 175.4591  1.00272184 23777
INTELSAT 21 (IS-21)     
1 38749U 12045A   19024.81707075 -.00000298  00000-0  00000-0 0  9994
2 38749   0.0102  35.1344 0002230 274.3699  50.4760  1.00270785 23459
ASTRA 2F                
1 38778U 12051A   19024.57829473  .00000136  00000-0  00000-0 0  9993
2 38778   0.0856 244.5316 0003563  22.3894  93.0097  1.00270507 14087
GSAT-10                 
1 38779U 12051B   19024.42649501 -.00000177  00000-0  00000+0 0  9995
2 38779   0.0826 101.2036 0001356 216.4749  42.2828  1.00270924 23212
INTELSAT 23 (IS-23)     
1 38867U 12057A   19023.80593257 -.00000297  00000-0  00000+0 0  9999
2 38867   0.0185  63.1333 0002091 245.7245  51.1236  1.00269741 23023
BEIDOU 16               
1 38953U 12059A   19025.54355032 -.00000188  00000-0  00000+0 0  9996
2 38953   1.5621  82.9465 0008004 210.0847 111.1536  1.00268889 22973
LUCH 5B                 
1 38977U 12061A   19023.28556777 -.00000145  00000-0  00000+0 0  9996
2 38977   4.7111  70.8070 0005106 264.5079 233.5096  1.00271054 23088
YAMAL 300K              
1 38978U 12061B   19025.22790400  .00000058  00000-0  00000+0 0  9998
2 38978   0.0165  96.9550 0000433 220.9485  71.3303  1.00273260 22803
STAR ONE C3             
1 38991U 12062A   19024.35732641 -.00000261  00000-0  00000-0 0  9998
2 38991   0.0173  68.7472 0002702 260.9951 207.2386  1.00268965 22694
EUTELSAT 21B            
1 38992U 12062B   19024.59662092  .00000116  00000-0  00000-0 0  9995
2 38992   0.0641  20.0871 0002395 286.9529  52.9096  1.00272377 22769
ECHOSTAR 16             
1 39008U 12065A   19023.82949010 -.00000294  00000-0  00000-0 0  9998
2 39008   0.0145  80.9918 0001989 230.0708  48.8931  1.00271256 22555
CHINASAT 12 (ZX 12)     
1 39017U 12067A   19024.82271677 -.00000220  00000-0  00000-0 0  9997
2 39017   0.0183  85.4399 0002912 217.4653 204.6015  1.00271439 22632
EUTELSAT 70B            
1 39020U 12069A   19024.46095576 -.00000057  00000-0  00000-0 0  9993
2 39020   0.0647  35.4840 0002794 243.9242  80.5320  1.00272441 22424
YAMAL 402               
1 39022U 12070A   19024.50428383  .00000073  00000-0  00000-0 0  9995
2 39022   0.0189  63.7156 0003071 255.4249  40.8364  1.00270696 22321
SKYNET 5D               
1 39034U 12075A   19024.92572568  .00000086  00000-0  00000-0 0  9998
2 39034   0.0708   9.3571 0004076 291.7440 208.8024  1.00272174 22096
MEXSAT 3                
1 39035U 12075B   19023.97715101 -.00000038  00000-0  00000-0 0  9993
2 39035   0.0174 111.6541 0002325 199.4386  48.8597  1.00271060 22108
TDRS 11                 
1 39070U 13004A   19024.05701204  .00000071  00000-0  00000-0 0  9990
2 39070   4.5801 329.1637 0003370 331.7588  28.4560  1.00265348 19619
AMAZONAS 3              
1 39078U 13006A   19024.82527379 -.00000296  00000-0  00000-0 0  9994
2 39078   0.0152 208.4818 0003721  73.4976  77.9790  1.00269376 17806
AZERSPACE 1             
1 39079U 13006B   19024.52904487  .00000120  00000-0  00000-0 0  9996
2 39079   0.0180  61.2006 0002196 281.0352  17.7565  1.00270030 21730
EUTELSAT 117 WEST A     
1 39122U 13012A   19023.98267010 -.00000025  00000-0  00000-0 0  9990
2 39122   0.0083  31.9053 0002969 279.6173  48.4244  1.00271823 21364
ANIK G1                 
1 39127U 13014A   19022.22866941 -.00000082  00000-0  00000+0 0  9993
2 39127   0.0428 271.0434 0003318  18.6791 166.5550  1.00271158 21158
CHINASAT 11 (ZX 11)     
1 39157U 13020A   19025.32510730 -.00000304  00000-0  00000+0 0  9996
2 39157   0.0331 215.8326 0004471  79.7635  43.7128  1.00267874 21074
EUTELSAT 7B             
1 39163U 13022A   19024.63701523  .00000034  00000-0  00000-0 0  9990
2 39163   0.0402  15.0517 0005640 323.8467  21.0496  1.00271943 20918
WGS F5 (USA 243)        
1 39168U 13024A   19024.80189512 -.00000298  00000-0  00000-0 0  9997
2 39168   0.0153  70.6253 0000529 284.6673   4.6782  1.00270856 20102
SES-6                   
1 39172U 13026A   19023.77133688 -.00000273  00000-0  00000-0 0  9995
2 39172   0.0294 333.1940 0002136 327.7242  59.0338  1.00273676 20643
IRNSS-1A                
1 39199U 13034A   19023.79801115  .00000071  00000-0  00000-0 0  9997
2 39199  29.8499 105.1025 0022511 185.0631 174.9246  1.00272060 20286
MUOS-2                  
1 39206U 13036A   19023.89078068 -.00000135  00000-0  00000-0 0  9994
2 39206   3.0181 343.2666 0057326 357.3071   3.0286  1.00272595 20129
ALPHASAT                
1 39215U 13038A   19024.65589369  .00000123  00000-0  00000-0 0  9998
2 39215   2.1190  24.2350 0002271 283.7713  76.5998  1.00270111 16974
INSAT-3D                
1 39216U 13038B   19024.42904622 -.00000169  00000-0  00000+0 0  9997
2 39216   0.0249 297.7564 0001162  36.0870  26.1508  1.00270004 20224
WGS F6 (USA 244)        
1 39222U 13041A   19024.63895769  .00000076  00000-0  00000-0 0  9999
2 39222   0.0157  83.9800 0000427 241.5124 252.9719  1.00270694 18972
EUTELSAT 25B            
1 39233U 13044A   19024.58578727  .00000130  00000-0  00000-0 0  9991
2 39233   0.0455   8.4338 0001939 297.5552  53.9647  1.00269074 19563
GSAT-7                  
1 39234U 13044B   19024.45126450 -.00000090  00000-0  00000-0 0  9996
2 39234   0.0226 103.5191 0009560 178.1127  78.2324  1.00271561 18266
AMOS-4                  
1 39237U 13045A   19024.47638801 -.00000006  00000-0  00000-0 0  9997
2 39237   0.0140  84.7737 0002205 283.4257 351.7759  1.00271848 19870
AEHF-3 (USA 246)        
1 39256U 13050A   19024.09676309 -.00000194  00000-0  00000-0 0  9995
2 39256   1.4210 309.3969 0006682  17.0284 343.7832  1.00270164 18592
ASTRA 2E                
1 39285U 13056A   19024.57737230  .00000137  00000-0  00000-0 0  9993
2 39285   0.0565  35.0460 0002415 268.8149  56.0877  1.00274681 19386
SIRIUS FM-6             
1 39360U 13058A   19023.98093498 -.00000030  00000-0  00000+0 0  9996
2 39360   0.0130  58.6913 0000620  86.7357 214.5497  1.00272322 19262
RADUGA-1M 3             
1 39375U 13062A   19025.53825508 -.00000052  00000-0  00000+0 0  9999
2 39375   0.0362 190.8439 0002814 117.9947  79.4569  1.00272492 19060
SES-8                   
1 39460U 13071A   19024.39327655 -.00000283  00000-0  00000-0 0  9994
2 39460   0.0545 261.6472 0001229  56.1858  42.1293  1.00274199 17421
INMARSAT 5-F1           
1 39476U 13073A   19024.48302087  .00000015  00000-0  00000-0 0  9997
2 39476   0.0174  65.9716 0000836 272.3568  21.6397  1.00269112 18523
TKSAT-1 (TUPAC KATARI)  
1 39481U 13075A   19024.85743502 -.00000208  00000-0  00000-0 0  9992
2 39481   0.0231 142.0807 0002852 179.7304  23.5319  1.00271704 18513
EXPRESS-AM5             
1 39487U 13077A   19024.84195464 -.00000294  00000-0  00000+0 0  9991
2 39487   0.0418 232.4787 0000876 153.7398 180.7407  1.00269314 19290
GSAT-14                 
1 39498U 14001A   19024.45132929 -.00000090  00000-0  00000-0 0  9990
2 39498   0.0547 262.7955 0005249  24.2045  72.9141  1.00271109 18356
THAICOM 6               
1 39500U 14002A   19024.62553081 -.00000134  00000-0  00000-0 0  9999
2 39500   0.0548 124.6520 0000445 143.5248 159.1435  1.00269763 18377
TDRS 12                 
1 39504U 14004A   19024.70432165 -.00000278  00000-0  00000-0 0  9992
2 39504   5.2931 336.2693 0003443 309.4713  50.6800  1.00274111 17202
ABS-2                   
1 39508U 14006A   19024.44882054 -.00000099  00000-0  00000-0 0  9996
2 39508   0.0375 289.8278 0003285  33.9531  36.1685  1.00271282 18234
ATHENA-FIDUS            
1 39509U 14006B   19024.55172741  .00000141  00000-0  00000-0 0  9991
2 39509   0.0150  82.2801 0001132 229.5543  48.1275  1.00272155 18001
TURKSAT 4A              
1 39522U 14007A   19024.53990634  .00000133  00000-0  00000-0 0  9995
2 39522   0.0838 271.3635 0004887  16.6426  71.9121  1.00274148 17917
EXPRESS-AT1             
1 39612U 14010A   19025.32827101  .00000065  00000-0  00000+0 0  9998
2 39612   0.0589 229.7686 0000252 135.5242 293.1889  1.00271824 17975
EXPRESS-AT2             
1 39613U 14010B   19024.18477354 -.00000294  00000-0  00000+0 0  9998
2 39613   0.0754 232.5903 0000207 213.5682 243.3921  1.00271297 17797
AMAZONAS 4A             
1 39616U 14011A   19023.86410351 -.00000264  00000-0  00000-0 0  9998
2 39616   0.0594  71.3628 0003230 243.0609  45.5226  1.00266630 17617
